NUSAT-1 (FRESCO)        
1 41557U 16033B   22291.83089108  .00024634  00000+0  65858-3 0  9991
2 41557  97.3896  29.9888 0009209 297.5476 158.0185 15.38021228356329
BEESAT-4                
1 41619U 16040W   22291.12123726  .00018811  00000+0  55881-3 0  9990
2 41619  97.2024 338.6369 0009381  46.4308 313.7713 15.34774943339514
CAS-2T & KS-1Q          
1 41847U 16066G   22291.44292345  .00001516  00000+0  23665-3 0  9999
2 41847  98.5381 355.9178 0362716 201.7427 156.8024 14.38802935312034
NAYIF-1 (EO-88)         
1 42017U 17008BX  22291.59216741  .00024894  00000+0  64484-3 0  9996
2 42017  97.2548 356.1417 0005113 152.2781 207.8738 15.39018911315983
ZHUHAI-1 02 (CAS-4B)    
1 42759U 17034B   22291.63572251  .00007904  00000+0  45319-3 0  9993
2 42759  43.0185  13.3149 0010633 342.2124 165.5982 15.12868856295004
ZHUHAI-1 01 (CAS-4A)    
1 42761U 17034D   22291.66576272  .00007804  00000+0  44650-3 0  9992
2 42761  43.0188  11.8480 0010939 343.6715 170.9870 15.12957104295013
MAX VALIER SAT          
1 42778U 17036P   22291.84338322  .00011853  00000+0  42177-3 0  9995
2 42778  97.1932 328.7660 0008675 241.4300 118.6068 15.29079038295744
RADFXSAT (FOX-1B)       
1 43017U 17073E   22291.67611024  .00003218  00000+0  24063-3 0  9997
2 43017  97.6566 180.7883 0246521 143.7146 218.1073 14.82302134265369
FOX-1D (AO-92)          
1 43137U 18004AC  22291.66967705  .00013365  00000+0  43562-3 0  9993
2 43137  97.3581   5.8281 0005979 286.4771  73.5813 15.31923894265197
DIWATA-2B               
1 43678U 18084H   22291.82794296  .00002067  00000+0  20758-3 0  9991
2 43678  97.9889  66.6825 0008610 235.3412 124.6969 14.92404289216254
ES'HAIL 2               
1 43700U 18090A   22291.63165875  .00000145  00000+0  00000+0 0  9997
2 43700   0.0150 257.8811 0002729 343.3800  39.0593  1.00272777 14260
FOX-1CLIFF (AO-95)      
1 43770U 18099N   22291.60468431  .00003745  00000+0  32940-3 0  9995
2 43770  97.6088 354.7147 0012811 216.4524 143.5827 14.97052116211436
ITASAT 1                
1 43786U 18099AE  22291.58882974  .00003059  00000+0  26957-3 0  9990
2 43786  97.6100 355.6804 0014092 209.6294 150.4131 14.97106128211471
JY1SAT (JO-97)          
1 43803U 18099AX  22291.82841927  .00002977  00000+0  25827-3 0  9993
2 43803  97.6066 355.7127 0013814 209.9182 150.1252 14.97745957211538
UWE-4                   
1 43880U 18111E   22291.67143250  .00003810  00000+0  32003-3 0  9991
2 43880  97.6548 195.8029 0010233 263.6146  96.3911 14.98873001208151
NEXUS (FO-99)           
1 43937U 19003F   22291.02903928  .00019176  00000+0  58317-3 0  9998
2 43937  97.1209 319.7663 0020899  77.0923 283.2653 15.33851884208743
PSAT2 (NO-104)          
1 44354U 19036R   22291.65035029  .00093341 -45338-5  59791-3 0  9998
2 44354  28.5240  35.6051 0173152 294.1183  64.1400 15.56774379183775
JAISAT-1                
1 44419U 19038F   22291.36002851  .00011222  00000+0  53026-3 0  9990
2 44419  97.6504 262.7158 0020612  69.5520 290.7924 15.19393985181707
DUCHIFAT-3              
1 44854U 19089C   22291.75879700  .00006877  00000+0  52050-3 0  9993
2 44854  36.9654  88.9335 0006211 147.5310 333.9038 15.01975222156473
CAS-6 (TIANQIN 1)       
1 44881U 19093C   22291.88315732  .00001115  00000+0  14731-3 0  9996
2 44881  97.8845   9.2777 0015757 140.4508 219.7830 14.81878373153051
RS-44 & BREEZE-KM R/B   
1 44909U 19096E   22291.09368793  .00000012  00000+0  20164-5 0  9992
2 44909  82.5202 148.8208 0218043  33.2020 328.2547 12.79715928131193
ORBITAL FACTORY 2 (OF-2)
1 45113U 19071C   22291.05806890  .00048832  00000+0  77026-3 0  9993
2 45113  51.6348 173.3757 0008361 245.5143 114.4976 15.53001279152371
HUSKYSAT-1 (HO-107)     
1 45119U 19071J   22291.29680578  .00037100  00000+0  63103-3 0  9995
2 45119  51.6349 173.4354 0008330 244.5762 115.4365 15.51020952152385
BY70-2                  
1 45857U 20042B   22291.90763136  .00013010  00000+0  16635-2 0  9995
2 45857  97.9481   7.6416 0011116  80.7883 279.4479 14.81461764123726
SALSAT                  
1 46495U 20068K   22291.78306278  .00003518  00000+0  25117-3 0  9996
2 46495  97.7397 233.2139 0015321 214.8705 145.1519 15.05098337112735
BY70-3                  
1 46839U 20079N   22291.93177848  .00044753  00000+0  84575-3 0  9995
2 46839  97.1850   2.7641 0004376 229.4637 246.3125 15.48287047109307
RADFXSAT-2 (AO-109)     
1 47311U 21002C   22291.63604136  .00013492  00000+0  49873-3 0  9998
2 47311  60.6841 257.9073 0036366  55.6786 304.7735 15.27438362 97261
UVSQ-SAT                
1 47438U 21006AB  22291.61805672  .00007383  00000+0  37444-3 0  9991
2 47438  97.4234 348.1110 0011014 199.8257 160.2550 15.17179826 95946
DIY-1 (ARDUIQUBE)       
1 47963U 21022AH  22291.71097243  .00023900  00000+0  11806-2 0  9996
2 47963  97.5177 191.8505 0018452  70.3828 289.9395 15.17711096 85617
XW-3 (CAS-9)            
1 50466U 21131B   22291.84269710  .00000342  00000+0  12649-3 0  9995
2 50466  98.5727   8.9909 0005533 134.9619 225.2017 14.38551992 42658
TEVEL-3                 
1 50988U 22002E   22291.94726726  .00012707  00000+0  66053-3 0  9994
2 50988  97.4680 356.9060 0009295   5.5575 167.2780 15.16171968 42111
TEVEL-8                 
1 50989U 22002F   22291.94065615  .00012603  00000+0  65624-3 0  9996
2 50989  97.4709 356.9317 0008959   5.3507  80.1226 15.16116566 42119
TEVEL-5                 
1 50998U 22002Q   22291.78199392  .00013462  00000+0  68907-3 0  9999
2 50998  97.4676 356.9127 0010436   0.3270  96.0075 15.16691893 42104
TEVEL-6                 
1 50999U 22002R   22291.91128676  .00013456  00000+0  68860-3 0  9993
2 50999  97.4685 357.0375 0010393 359.7743  86.0369 15.16700520 42125
TEVEL-1                 
1 51013U 22002AF  22291.93632006  .00012742  00000+0  66289-3 0  9990
2 51013  97.4681 356.8667 0009098   4.8789  84.7267 15.16143582 42118
TEVEL-7                 
1 51062U 22002CG  22291.94259881  .00012691  00000+0  66085-3 0  9998
2 51062  97.4705 356.9172 0009079   4.4733  80.9042 15.16112590 42119
TEVEL-4                 
1 51063U 22002CH  22291.94384853  .00012576  00000+0  65515-3 0  9996
2 51063  97.4696 356.9116 0008887   4.9043  80.4877 15.16098392 42116
TEVEL-2                 
1 51069U 22002CP  22291.80254964  .00012936  00000+0  67251-3 0  9995
2 51069  97.4681 356.7472 0009060   5.3380  89.4701 15.16164421 42091
GREENCUBE               
1 53106U 22080B   22276.55284936 -.00000003  00000+0  00000+0 0  9990
2 53106  70.1655  48.8724 0008696 239.2659 120.7144  6.42557820  5260
YUZGU 9 (RS3S)          
1 53308U 98067TT  22291.83456255  .00084070  00000+0  10461-2 0  9995
2 53308  51.6381  81.6932 0005040 311.1128  48.9429 15.59208257 13936
YUZGU 7 (RS1S)          
1 53309U 98067TU  22291.89163282  .00086514  00000+0  10610-2 0  9998
2 53309  51.6377  81.3209 0005098 319.6135  40.4479 15.59578150 13899
YUZGU 11 (RS5S)         
1 53310U 98067TV  22291.83386390  .00083508  00000+0  10379-2 0  9993
2 53310  51.6379  81.6890 0004717 318.5703  41.4931 15.59243557 13915
YUZGU 12 (RS6S)         
1 53311U 98067TW  22291.88232514  .00082115  00000+0  99600-3 0  9995
2 53311  51.6378  81.2577 0005434 306.5058  53.5434 15.59888809 13940
TSIOLKOVSKY-RYAZAN 1 (*)
1 53312U 98067TX  22291.88980933  .00086028  00000+0  10553-2 0  9997
2 53312  51.6386  81.3116 0005063 322.7361  37.3280 15.59574245 13883
TSIOLKOVSKY-RYAZAN 2 (*)
1 53313U 98067TY  22291.88766335  .00085042  00000+0  10442-2 0  9998
2 53313  51.6386  81.2977 0004582 320.2372  39.8285 15.59556623 13936
YUZGU 10 (RS4S)         
1 53321U 98067TZ  22291.83251234  .00085263  00000+0  10530-2 0  9992
2 53321  51.6380  81.6799 0005034 314.7900  45.2683 15.59400514 13922
RS29S (SXC3-2110 CYCLO*)
1 53373U 22096D   22291.93093469  .00017440  00000+0  68110-3 0  9993
2 53373  97.4277 192.8894 0001242  42.4372  86.9471 15.25952860 10763
RS32S (SXC3-212 MONITO*)
1 53374U 22096E   22291.92676449  .00017500  00000+0  68108-3 0  9992
2 53374  97.4274 192.8963 0000975  60.7069  73.9611 15.26068797 10766
RS34S (SXC3-218 KUZBAS*)
1 53375U 22096F   22291.98219972  .00014178  00000+0  55624-3 0  9990
2 53375  97.4285 192.9456 0000731  57.5761   6.9918 15.25846127 10777
RS23S (SXC3-21 UTMN)    
1 53376U 22096G   22291.92748168  .00014352  00000+0  56237-3 0  9994
2 53376  97.4280 192.8962 0000930  61.3691  70.6454 15.25884948 10765
RS28S (SXC3-214 MIET-A*)
1 53377U 22096H   22291.91463057  .00014270  00000+0  55899-3 0  9997
2 53377  97.4279 192.8861 0000849  46.4871  21.9668 15.25896705 10765
RS26S (KAI-1)           
1 53378U 22096J   22291.92642821  .00012468  00000+0  49036-3 0  9990
2 53378  97.4280 192.8960 0000633  64.0486  66.5434 15.25794626 10762
RS19S (SXC3-219 ISOI)   
1 53381U 22096M   22291.95737444  .00014742  00000+0  56912-3 0  9991
2 53381  97.4274 192.9742 0003545 169.4215 247.3436 15.26370934 10778
RS21S (CUBESX-HSE-2)    
1 53383U 22096P   22291.89003241  .00014967  00000+0  57737-3 0  9992
2 53383  97.4284 192.9137 0003813 171.0426 247.7777 15.26393081 10769
RS30S (SXC3-217 SIREN)  
1 53384U 22096Q   22291.89006148  .00014025  00000+0  54192-3 0  9999
2 53384  97.4278 192.9136 0003887 172.2829 246.9247 15.26351471 10763
RS20S (GEOSCAN-EDELVEIS)
1 53385U 22096R   22291.87829984  .00018380  00000+0  69777-3 0  9992
2 53385  97.4279 192.9303 0004089 174.1729 250.1746 15.26877217 10791
RS33S (SXC3-215 VIZARD) 
1 53386U 22096S   22291.94067031  .00022107  00000+0  82481-3 0  9997
2 53386  97.4280 193.0275 0004821 177.6229 311.2127 15.27412087 10794
